[{"OBJECT_NAME":"STARLINK-33907","OBJECT_ID":"2025-089U","EPOCH":"2026-03-08T00:49:56.571456","MEAN_MOTION":15.27627909,"ECCENTRICITY":0.0001096,"INCLINATION":43.0023,"RA_OF_ASC_NODE":54.6456,"ARG_OF_PERICENTER":197.4662,"MEAN_ANOMALY":162.6152,"EPHEMERIS_TYPE":0,"CLASSIFICATION_TYPE":"U","NORAD_CAT_ID":63769,"ELEMENT_SET_NO":999,"REV_AT_EPOCH":4865,"BSTAR":0.0012588594,"MEAN_MOTION_DOT":0.00034592,"MEAN_MOTION_DDOT":0},{"OBJECT_NAME":"OBJECT G","OBJECT_ID":"2025-155G","EPOCH":"2026-03-09T22:09:56.639808","MEAN_MOTION":15.27590702,"ECCENTRICITY":0.00081871,"INCLINATION":97.4488,"RA_OF_ASC_NODE":37.3259,"ARG_OF_PERICENTER":154.1528,"MEAN_ANOMALY":206.0122,"EPHEMERIS_TYPE":0,"CLASSIFICATION_TYPE":"U","NORAD_CAT_ID":64882,"ELEMENT_SET_NO":999,"REV_AT_EPOCH":6559,"BSTAR":0.0004792617,"MEAN_MOTION_DOT":0.00012876,"MEAN_MOTION_DDOT":0}]
